{
  "norad_id": 59185,
  "name": "STARLINK-31394",
  "history": [
    {
      "epoch": "2026-03-28T17:19:25.253184Z",
      "apogee_km": 483.4518841482568,
      "perigee_km": 482.6654539006731,
      "latitude_deg": -1.2189779069010875e-05,
      "longitude_deg": -111.4344287731624,
      "height_km": 482.75697324079545,
      "semi_major_axis_km": 6861.195669024464,
      "eccentricity": 5.731e-05,
      "inclination_deg": 42.9989,
      "raan_deg": 334.559,
      "arg_perigee_deg": 281.3738,
      "mean_anomaly_deg": 78.7049,
      "mean_motion_rev_day": 15.27576803
    },
    {
      "epoch": "2026-03-29T01:10:12.058752Z",
      "apogee_km": 483.42770588055737,
      "perigee_km": 482.67709176032713,
      "latitude_deg": 2.3619276688087262e-05,
      "longitude_deg": 128.70194860986123,
      "height_km": 482.7693513073476,
      "semi_major_axis_km": 6861.189398820442,
      "eccentricity": 5.47e-05,
      "inclination_deg": 42.9987,
      "raan_deg": 332.7126,
      "arg_perigee_deg": 279.0211,
      "mean_anomaly_deg": 81.0579,
      "mean_motion_rev_day": 15.27578897
    },
    {
      "epoch": "2026-03-29T23:08:21.817824Z",
      "apogee_km": 483.54869166900426,
      "perigee_km": 482.2917459865148,
      "latitude_deg": -4.379992410719307e-05,
      "longitude_deg": 153.08916409795725,
      "height_km": 482.6841993389489,
      "semi_major_axis_km": 6861.057218827759,
      "eccentricity": 9.16e-05,
      "inclination_deg": 42.9985,
      "raan_deg": 327.5428,
      "arg_perigee_deg": 271.1068,
      "mean_anomaly_deg": 88.9678,
      "mean_motion_rev_day": 15.27623041
    },
    {
      "epoch": "2026-03-29T23:08:21.818688Z",
      "apogee_km": 483.54889750072107,
      "perigee_km": 482.291540154798,
      "latitude_deg": -4.145328024117455e-05,
      "longitude_deg": 153.0891629908132,
      "height_km": 482.68419536487846,
      "semi_major_axis_km": 6861.057218827759,
      "eccentricity": 9.163e-05,
      "inclination_deg": 42.9985,
      "raan_deg": 327.5428,
      "arg_perigee_deg": 271.1068,
      "mean_anomaly_deg": 88.9678,
      "mean_motion_rev_day": 15.27623041
    },
    {
      "epoch": "2026-03-30T16:24:05.312448Z",
      "apogee_km": 483.3629576097728,
      "perigee_km": 482.66037598629373,
      "latitude_deg": -2.4184444923452543e-05,
      "longitude_deg": -110.61197028361042,
      "height_km": 482.8641748255939,
      "semi_major_axis_km": 6861.148666798033,
      "eccentricity": 5.12e-05,
      "inclination_deg": 42.9996,
      "raan_deg": 323.4818,
      "arg_perigee_deg": 257.3951,
      "mean_anomaly_deg": 102.6843,
      "mean_motion_rev_day": 15.275925
    },
    {
      "epoch": "2026-03-31T15:56:28.256352Z",
      "apogee_km": 483.34410602999014,
      "perigee_km": 482.7650214620098,
      "latitude_deg": -3.7882321068322523e-05,
      "longitude_deg": -110.21622458272631,
      "height_km": 482.8045169517824,
      "semi_major_axis_km": 6861.191563746,
      "eccentricity": 4.22e-05,
      "inclination_deg": 43.0072,
      "raan_deg": 317.9399,
      "arg_perigee_deg": 275.2875,
      "mean_anomaly_deg": 84.7928,
      "mean_motion_rev_day": 15.27578174
    },
    {
      "epoch": "2026-03-31T23:47:13.936128Z",
      "apogee_km": 484.0557386615428,
      "perigee_km": 482.00685658450675,
      "latitude_deg": -3.0759356631096116e-05,
      "longitude_deg": 129.9275263838927,
      "height_km": 482.5890624929577,
      "semi_major_axis_km": 6861.168297623024,
      "eccentricity": 0.00014931,
      "inclination_deg": 43.0017,
      "raan_deg": 316.0962,
      "arg_perigee_deg": 282.3556,
      "mean_anomaly_deg": 77.7128,
      "mean_motion_rev_day": 15.27585944
    },
    {
      "epoch": "2026-04-02T21:17:45.730176Z",
      "apogee_km": 483.6629235115788,
      "perigee_km": 482.36479376912484,
      "latitude_deg": -3.954161067049137e-05,
      "longitude_deg": 154.71776237778843,
      "height_km": 482.8420395286462,
      "semi_major_axis_km": 6861.1508586403515,
      "eccentricity": 9.46e-05,
      "inclination_deg": 43.0016,
      "raan_deg": 305.3879,
      "arg_perigee_deg": 265.4316,
      "mean_anomaly_deg": 94.6427,
      "mean_motion_rev_day": 15.27591768
    },
    {
      "epoch": "2026-04-02T21:17:45.731040Z",
      "apogee_km": 483.66326656912315,
      "perigee_km": 482.3644507115814,
      "latitude_deg": -3.5623409748218964e-05,
      "longitude_deg": 154.71776294623447,
      "height_km": 482.8420668490069,
      "semi_major_axis_km": 6861.1508586403515,
      "eccentricity": 9.465e-05,
      "inclination_deg": 43.0016,
      "raan_deg": 305.3879,
      "arg_perigee_deg": 265.4316,
      "mean_anomaly_deg": 94.6427,
      "mean_motion_rev_day": 15.27591768
    },
    {
      "epoch": "2026-04-03T14:33:30.093984Z",
      "apogee_km": 484.5888095285691,
      "perigee_km": 481.5232284876756,
      "latitude_deg": -1.5861628214997688e-05,
      "longitude_deg": -108.98739995989101,
      "height_km": 482.39769418927625,
      "semi_major_axis_km": 6861.193019008122,
      "eccentricity": 0.0002234,
      "inclination_deg": 43.0073,
      "raan_deg": 301.3265,
      "arg_perigee_deg": 286.5446,
      "mean_anomaly_deg": 73.516,
      "mean_motion_rev_day": 15.27577688
    },
    {
      "epoch": "2026-04-03T23:58:25.999392Z",
      "apogee_km": 484.0035452170223,
      "perigee_km": 482.0708896634542,
      "latitude_deg": -1.246877799710271e-05,
      "longitude_deg": 107.1760823772021,
      "height_km": 482.70671071574935,
      "semi_major_axis_km": 6861.174217440238,
      "eccentricity": 0.00014084,
      "inclination_deg": 43.0,
      "raan_deg": 299.1096,
      "arg_perigee_deg": 276.3707,
      "mean_anomaly_deg": 83.6984,
      "mean_motion_rev_day": 15.27583967
    },
    {
      "epoch": "2026-04-05T05:47:24.805248Z",
      "apogee_km": 483.74564228504823,
      "perigee_km": 482.39672875577435,
      "latitude_deg": 5.563223298981383e-05,
      "longitude_deg": 11.69031585644074,
      "height_km": 482.8014585387676,
      "semi_major_axis_km": 6861.208185520411,
      "eccentricity": 9.83e-05,
      "inclination_deg": 42.9992,
      "raan_deg": 292.0933,
      "arg_perigee_deg": 273.9092,
      "mean_anomaly_deg": 86.1648,
      "mean_motion_rev_day": 15.27572623
    },
    {
      "epoch": "2026-04-05T19:54:50.043168Z",
      "apogee_km": 483.68142739205905,
      "perigee_km": 482.50129611383636,
      "latitude_deg": 5.338127387580944e-06,
      "longitude_deg": 155.93386435279348,
      "height_km": 483.23753852107114,
      "semi_major_axis_km": 6861.228361752947,
      "eccentricity": 8.6e-05,
      "inclination_deg": 43.0017,
      "raan_deg": 288.7721,
      "arg_perigee_deg": 231.17,
      "mean_anomaly_deg": 128.9075,
      "mean_motion_rev_day": 15.27565885
    },
    {
      "epoch": "2026-04-05T21:28:59.584512Z",
      "apogee_km": 483.8576174702275,
      "perigee_km": 482.3388144428236,
      "latitude_deg": -2.836212556330362e-05,
      "longitude_deg": 131.9586231351508,
      "height_km": 482.9963361161639,
      "semi_major_axis_km": 6861.235215956525,
      "eccentricity": 0.00011068,
      "inclination_deg": 42.9993,
      "raan_deg": 288.4011,
      "arg_perigee_deg": 260.7728,
      "mean_anomaly_deg": 99.2998,
      "mean_motion_rev_day": 15.27563596
    },
    {
      "epoch": "2026-04-07T12:42:53.851680Z",
      "apogee_km": 483.8313743164417,
      "perigee_km": 482.3139491876482,
      "latitude_deg": 2.5849708889101915e-05,
      "longitude_deg": -107.35852682259481,
      "height_km": 483.00423459709515,
      "semi_major_axis_km": 6861.209661752045,
      "eccentricity": 0.00011058,
      "inclination_deg": 43.0031,
      "raan_deg": 279.1712,
      "arg_perigee_deg": 258.2258,
      "mean_anomaly_deg": 101.847,
      "mean_motion_rev_day": 15.2757213
    },
    {
      "epoch": "2026-04-07T20:33:40.659840Z",
      "apogee_km": 483.85156836337956,
      "perigee_km": 482.2666320642302,
      "latitude_deg": -5.067511271500986e-05,
      "longitude_deg": 132.77721906580584,
      "height_km": 482.8999664631533,
      "semi_major_axis_km": 6861.196100213805,
      "eccentricity": 0.0001155,
      "inclination_deg": 43.0033,
      "raan_deg": 277.3243,
      "arg_perigee_deg": 265.367,
      "mean_anomaly_deg": 94.7049,
      "mean_motion_rev_day": 15.27576659
    },
    {
      "epoch": "2026-04-08T12:15:14.770368Z",
      "apogee_km": 483.8294840220915,
      "perigee_km": 482.2762478602399,
      "latitude_deg": 5.560935532326931e-06,
      "longitude_deg": -106.95343090871468,
      "height_km": 482.8296009115422,
      "semi_major_axis_km": 6861.189865941165,
      "eccentricity": 0.00011319,
      "inclination_deg": 43.0019,
      "raan_deg": 273.6302,
      "arg_perigee_deg": 269.9964,
      "mean_anomaly_deg": 90.0758,
      "mean_motion_rev_day": 15.27578741
    }
  ]
}